{"type": "FeatureCollection", "features": [ {"type": "Feature", "properties": {"norad_id": 43207, "name": "BEIDOU-3 M4 (C22)", "group": "beidou", "lat": 56.42693693147538, "lon": 155.46044597963336, "alt_km": 21518.133724690353, "timestamp": "2025-12-02T06:27:53.278933+00:00", "meta": {"OBJECT_NAME": "BEIDOU-3 M4 (C22)", "OBJECT_ID": "2018-018A", "EPOCH": "2025-12-01T14:26:30.979680", "MEAN_MOTION": 1.86230736, "ECCENTRICITY": 0.00040579, "INCLINATION": 56.4763, "RA_OF_ASC_NODE": 69.6735, "ARG_OF_PERICENTER": 15.5905, "MEAN_ANOMALY": 344.4245, "EPHEMERIS_TYPE": 0, "CLASSIFICATION_TYPE": "U", "NORAD_CAT_ID": 43207, "ELEMENT_SET_NO": 999, "REV_AT_EPOCH": 5306, "BSTAR": 0, "MEAN_MOTION_DOT": -4.1e-07, "MEAN_MOTION_DDOT": 0}, "tle": {"line1": "1 43207U 18018A   25335.60174745 -.00000041  00000+0  00000+0 0  9990", "line2": "2 43207  56.4763  69.6735 0004057  15.5905 344.4245  1.86230736 53062"}}, "geometry": {"type": "Point", "coordinates": [155.46044597963336, 56.42693693147538]}}, {"type": "Feature", "properties": {"norad_id": 43208, "name": "BEIDOU-3 M3 (C21)", "group": "beidou", "lat": 34.68151929713634, "lon": 96.91513259878991, "alt_km": 21522.40522330195, "timestamp": "2025-12-02T06:27:53.278944+00:00", "meta": {"OBJECT_NAME": "BEIDOU-3 M3 (C21)", "OBJECT_ID": "2018-018B", "EPOCH": "2025-12-01T16:02:18.991968", "MEAN_MOTION": 1.8623092, "ECCENTRICITY": 0.0006202, "INCLINATION": 56.4757, "RA_OF_ASC_NODE": 69.6754, "ARG_OF_PERICENTER": 317.7511, "MEAN_ANOMALY": 42.2037, "EPHEMERIS_TYPE": 0, "CLASSIFICATION_TYPE": "U", "NORAD_CAT_ID": 43208, "ELEMENT_SET_NO": 999, "REV_AT_EPOCH": 5306, "BSTAR": 0, "MEAN_MOTION_DOT": -4.2e-07, "MEAN_MOTION_DDOT": 0}, "tle": {"line1": "1 43208U 18018B   25335.66827537 -.00000042  00000+0  00000+0 0  9992", "line2": "2 43208  56.4757  69.6754 0006202 317.7511  42.2037  1.86230920 53068"}}, "geometry": {"type": "Point", "coordinates": [96.91513259878991, 34.68151929713634]}}, {"type": "Feature", "properties": {"norad_id": 43245, "name": "BEIDOU-3 M9 (C29)", "group": "beidou", "lat": -52.69381542728395, "lon": -163.01477516777263, "alt_km": 21529.196596892943, "timestamp": "2025-12-02T06:27:53.278955+00:00", "meta": {"OBJECT_NAME": "BEIDOU-3 M9 (C29)", "OBJECT_ID": "2018-029A", "EPOCH": "2025-12-01T08:20:14.784576", "MEAN_MOTION": 1.86227904, "ECCENTRICITY": 0.00017985, "INCLINATION": 54.3765, "RA_OF_ASC_NODE": 306.8658, "ARG_OF_PERICENTER": 272.1738, "MEAN_ANOMALY": 87.7976, "EPHEMERIS_TYPE": 0, "CLASSIFICATION_TYPE": "U", "NORAD_CAT_ID": 43245, "ELEMENT_SET_NO": 999, "REV_AT_EPOCH": 5221, "BSTAR": 0, "MEAN_MOTION_DOT": -5.8e-07, "MEAN_MOTION_DDOT": 0}, "tle": {"line1": "1 43245U 18029A   25335.34739334 -.00000058  00000+0  00000+0 0  9994", "line2": "2 43245  54.3765 306.8658 0001798 272.1738  87.7976  1.86227904 52214"}}, "geometry": {"type": "Point", "coordinates": [-163.01477516777263, -52.69381542728395]}}, {"type": "Feature", "properties": {"norad_id": 43246, "name": "BEIDOU-3 M10 (C30)", "group": "beidou", "lat": -43.8795145827617, "lon": -96.73753527799356, "alt_km": 21527.405743150422, "timestamp": "2025-12-02T06:27:53.278967+00:00", "meta": {"OBJECT_NAME": "BEIDOU-3 M10 (C30)", "OBJECT_ID": "2018-029B", "EPOCH": "2025-11-29T03:14:13.986240", "MEAN_MOTION": 1.86228967, "ECCENTRICITY": 0.00039142, "INCLINATION": 54.3758, "RA_OF_ASC_NODE": 306.9698, "ARG_OF_PERICENTER": 358.6776, "MEAN_ANOMALY": 1.3207, "EPHEMERIS_TYPE": 0, "CLASSIFICATION_TYPE": "U", "NORAD_CAT_ID": 43246, "ELEMENT_SET_NO": 999, "REV_AT_EPOCH": 5215, "BSTAR": 0, "MEAN_MOTION_DOT": -4.6e-07, "MEAN_MOTION_DDOT": 0}, "tle": {"line1": "1 43246U 18029B   25333.13488410 -.00000046  00000+0  00000+0 0  9993", "line2": "2 43246  54.3758 306.9698 0003914 358.6776   1.3207  1.86228967 52158"}}, "geometry": {"type": "Point", "coordinates": [-96.73753527799356, -43.8795145827617]}}, {"type": "Feature", "properties": {"norad_id": 43539, "name": "BEIDOU-2 IGSO-7 (C16)", "group": "beidou", "lat": 48.49516293314909, "lon": -67.22243013350035, "alt_km": 35983.668616469426, "timestamp": "2025-12-02T06:27:53.278979+00:00", "meta": {"OBJECT_NAME": "BEIDOU-2 IGSO-7 (C16)", "OBJECT_ID": "2018-057A", "EPOCH": "2025-12-01T10:54:56.772000", "MEAN_MOTION": 1.00260153, "ECCENTRICITY": 0.00924483, "INCLINATION": 55.1734, "RA_OF_ASC_NODE": 164.7711, "ARG_OF_PERICENTER": 235.1555, "MEAN_ANOMALY": 305.8956, "EPHEMERIS_TYPE": 0, "CLASSIFICATION_TYPE": "U", "NORAD_CAT_ID": 43539, "ELEMENT_SET_NO": 999, "REV_AT_EPOCH": 2714, "BSTAR": 0, "MEAN_MOTION_DOT": -1.9e-07, "MEAN_MOTION_DDOT": 0}, "tle": {"line1": "1 43539U 18057A   25335.45482375 -.00000019  00000+0  00000+0 0  9990", "line2": "2 43539  55.1734 164.7711 0092448 235.1555 305.8956  1.00260153 27149"}}, "geometry": {"type": "Point", "coordinates": [-67.22243013350035, 48.49516293314909]}}, {"type": "Feature", "properties": {"norad_id": 43581, "name": "BEIDOU-3 M5 (C23)", "group": "beidou", "lat": 23.227298930927283, "lon": -9.107522100048175, "alt_km": 21531.07660812689, "timestamp": "2025-12-02T06:27:53.278990+00:00", "meta": {"OBJECT_NAME": "BEIDOU-3 M5 (C23)", "OBJECT_ID": "2018-062A", "EPOCH": "2025-11-30T23:17:32.661024", "MEAN_MOTION": 1.8622853, "ECCENTRICITY": 0.0002124, "INCLINATION": 54.0891, "RA_OF_ASC_NODE": 189.0442, "ARG_OF_PERICENTER": 349.7703, "MEAN_ANOMALY": 10.3183, "EPHEMERIS_TYPE": 0, "CLASSIFICATION_TYPE": "U", "NORAD_CAT_ID": 43581, "ELEMENT_SET_NO": 999, "REV_AT_EPOCH": 4994, "BSTAR": 0, "MEAN_MOTION_DOT": 1.17e-06, "MEAN_MOTION_DDOT": 0}, "tle": {"line1": "1 43581U 18062A   25334.97051691  .00000117  00000+0  00000+0 0  9990", "line2": "2 43581  54.0891 189.0442 0002124 349.7703  10.3183  1.86228530 49947"}}, "geometry": {"type": "Point", "coordinates": [-9.107522100048175, 23.227298930927283]}}, {"type": "Feature", "properties": {"norad_id": 43582, "name": "BEIDOU-3 M6 (C24)", "group": "beidou", "lat": -45.990174694671005, "lon": 57.59096382365333, "alt_km": 21553.85491258412, "timestamp": "2025-12-02T06:27:53.279001+00:00", "meta": {"OBJECT_NAME": "BEIDOU-3 M6 (C24)", "OBJECT_ID": "2018-062B", "EPOCH": "2025-11-29T18:14:01.707936", "MEAN_MOTION": 1.86229617, "ECCENTRICITY": 0.00076529, "INCLINATION": 54.0888, "RA_OF_ASC_NODE": 189.0746, "ARG_OF_PERICENTER": 45.4041, "MEAN_ANOMALY": 314.7474, "EPHEMERIS_TYPE": 0, "CLASSIFICATION_TYPE": "U", "NORAD_CAT_ID": 43582, "ELEMENT_SET_NO": 999, "REV_AT_EPOCH": 4992, "BSTAR": 0, "MEAN_MOTION_DOT": 1.07e-06, "MEAN_MOTION_DDOT": 0}, "tle": {"line1": "1 43582U 18062B   25333.75974199  .00000107  00000+0  00000+0 0  9992", "line2": "2 43582  54.0888 189.0746 0007652  45.4041 314.7474  1.86229617 49926"}}, "geometry": {"type": "Point", "coordinates": [57.59096382365333, -45.990174694671005]}}, {"type": "Feature", "properties": {"norad_id": 43602, "name": "BEIDOU-3 M12 (C26)", "group": "beidou", "lat": -51.77161303663008, "lon": 121.2862710787016, "alt_km": 21545.24683057888, "timestamp": "2025-12-02T06:27:53.279012+00:00", "meta": {"OBJECT_NAME": "BEIDOU-3 M12 (C26)", "OBJECT_ID": "2018-067A", "EPOCH": "2025-11-30T18:30:45.050400", "MEAN_MOTION": 1.86227632, "ECCENTRICITY": 0.00091359, "INCLINATION": 54.1832, "RA_OF_ASC_NODE": 187.7696, "ARG_OF_PERICENTER": 40.335, "MEAN_ANOMALY": 319.8244, "EPHEMERIS_TYPE": 0, "CLASSIFICATION_TYPE": "U", "NORAD_CAT_ID": 43602, "ELEMENT_SET_NO": 999, "REV_AT_EPOCH": 4942, "BSTAR": 0, "MEAN_MOTION_DOT": 1.18e-06, "MEAN_MOTION_DDOT": 0}, "tle": {"line1": "1 43602U 18067A   25334.77135475  .00000118  00000+0  00000+0 0  9991", "line2": "2 43602  54.1832 187.7696 0009135  40.3350 319.8244  1.86227632 49424"}}, "geometry": {"type": "Point", "coordinates": [121.2862710787016, -51.77161303663008]}}, {"type": "Feature", "properties": {"norad_id": 43603, "name": "BEIDOU-3 M11 (C25)", "group": "beidou", "lat": -11.531627267742676, "lon": 16.16383225144927, "alt_km": 21544.600271623207, "timestamp": "2025-12-02T06:27:53.279024+00:00", "meta": {"OBJECT_NAME": "BEIDOU-3 M11 (C25)", "OBJECT_ID": "2018-067B", "EPOCH": "2025-11-29T19:57:56.721600", "MEAN_MOTION": 1.86227148, "ECCENTRICITY": 0.00055574, "INCLINATION": 54.1805, "RA_OF_ASC_NODE": 187.7656, "ARG_OF_PERICENTER": 35.6802, "MEAN_ANOMALY": 324.4454, "EPHEMERIS_TYPE": 0, "CLASSIFICATION_TYPE": "U", "NORAD_CAT_ID": 43603, "ELEMENT_SET_NO": 999, "REV_AT_EPOCH": 4943, "BSTAR": 0, "MEAN_MOTION_DOT": 1.1e-06, "MEAN_MOTION_DDOT": 0}, "tle": {"line1": "1 43603U 18067B   25333.83190650  .00000110  00000+0  00000+0 0  9996", "line2": "2 43603  54.1805 187.7656 0005557  35.6802 324.4454  1.86227148 49432"}}, "geometry": {"type": "Point", "coordinates": [16.16383225144927, -11.531627267742676]}}, {"type": "Feature", "properties": {"norad_id": 43622, "name": "BEIDOU-3 M13 (C32)", "group": "beidou", "lat": -34.82727012929858, "lon": -83.3825166048363, "alt_km": 21528.538791772804, "timestamp": "2025-12-02T06:27:53.279035+00:00", "meta": {"OBJECT_NAME": "BEIDOU-3 M13 (C32)", "OBJECT_ID": "2018-072A", "EPOCH": "2025-12-01T09:35:01.762080", "MEAN_MOTION": 1.86230738, "ECCENTRICITY": 0.00055646, "INCLINATION": 56.4493, "RA_OF_ASC_NODE": 69.1961, "ARG_OF_PERICENTER": 298.732, "MEAN_ANOMALY": 61.2159, "EPHEMERIS_TYPE": 0, "CLASSIFICATION_TYPE": "U", "NORAD_CAT_ID": 43622, "ELEMENT_SET_NO": 999, "REV_AT_EPOCH": 4897, "BSTAR": 0, "MEAN_MOTION_DOT": -4.1e-07, "MEAN_MOTION_DDOT": 0}, "tle": {"line1": "1 43622U 18072A   25335.39932595 -.00000041  00000+0  00000+0 0  9992", "line2": "2 43622  56.4493  69.1961 0005564 298.7320  61.2159  1.86230738 48973"}}, "geometry": {"type": "Point", "coordinates": [-83.3825166048363, -34.82727012929858]}}]}